1 41920U 17003D   20247.74576185  .00000052  00000-0  11618-4 0  9993
2 41920  86.3933 251.1165 0002220  96.6571 263.4878 14.34216498190506
1 41922U 17003F   20247.75844716  .00000058  00000-0  13760-4 0  9990
2 41922  86.3934 251.1220 0002481  82.9697 277.1781 14.34219543190494
1 41923U 17003G   20247.76479402  .00000061  00000-0  14642-4 0  9992
2 41923  86.3934 251.1088 0001961  86.2587 273.8833 14.34216836190497
1 41925U 17003J   20247.75211154  .00000060  00000-0  14461-4 0  9999
2 41925  86.3930 251.0560 0001871  94.7574 265.3836 14.34218599190508
1 42810U 17039H   20247.68034564  .00000069  00000-0  14544-4 0  9993
2 42810  86.4450  93.2283 0002176  75.0027 285.1415 14.43276268170410
1 43251U 18030C   20247.66523027  .00000050  00000-0  10783-4 0  9991
2 43251  86.3923  93.2820 0002161  98.5744 261.5696 14.34217233127341
1 43253U 18030E   20247.81109442  .00000042  00000-0  78501-5 0  9995
2 43253  86.3923  93.2154 0001403  45.5604 314.5707 14.34218904127357
1 43254U 18030F   20248.07113730  .00000044  00000-0  87945-5 0  9994
2 43254  86.3924  93.1236 0001751  81.7605 278.3789 14.34218597127409
1 43256U 18030H   20247.86817887  .00000046  00000-0  94296-5 0  9995
2 43256  86.3921  93.1884 0001993  86.3812 273.7611 14.34218161127372
1 43258U 18030K   20247.81743510  .00000111  00000-0  32738-4 0  9998
2 43258  86.3929  93.2630 0001730  71.2001 288.9382 14.34217022127327
1 43478U 18047C   20247.93565842  .00000060  00000-0  11690-4 0  9990
2 43478  86.4456 251.1577 0002675  89.4058 270.7449 14.43276991120476